QIANFAN-81              
1 63167U 25046J   25273.61031545  .00000251  00000+0  36993-3 0  9994
2 63167  88.9821 327.4355 0013359 339.9334  20.1290 13.50982334 37614
QIANFAN-82              
1 63168U 25046K   25273.64330772  .00000262  00000+0  38735-3 0  9990
2 63168  88.9820 327.4757 0011805 349.7395  10.3513 13.50970280 37605
QIANFAN-83              
1 63169U 25046L   25273.59882186  .00000344  00000+0  43052-3 0  9995
2 63169  88.9819 327.4002 0012693 337.4225  22.6372 13.61957723 37641
QIANFAN-84              
1 63170U 25046M   25273.59776322  .00000242  00000+0  35593-3 0  9999
2 63170  88.9821 327.6134 0014613 344.0615  16.0075 13.50983115 37521
QIANFAN-85              
1 63171U 25046N   25273.44580510  .00000223  00000+0  32688-3 0  9997
2 63171  88.9820 327.5010 0012124 348.9073  11.1809 13.50980190 37575
QIANFAN-86              
1 63172U 25046P   25270.04706391  .00000201  00000+0  29286-3 0  9994
2 63172  88.9828 327.7109 0010538   5.8456 354.2816 13.50978981 37198
QIANFAN-87              
1 63173U 25046Q   25273.64744883  .00000251  00000+0  36981-3 0  9997
2 63173  88.9819 327.4551 0010686 348.5812  11.5095 13.50976600 37619
QIANFAN-88              
1 63174U 25046R   25273.66390647  .00000273  00000+0  40483-3 0  9991
2 63174  88.9821 327.4061 0011365 356.8280   3.2798 13.50970024 37640
